[{"OBJECT_NAME":"POEM-2","OBJECT_ID":"2023-057A","EPOCH":"2026-03-09T23:37:57.201312","MEAN_MOTION":14.94660083,"ECCENTRICITY":0.00213726,"INCLINATION":9.8873,"RA_OF_ASC_NODE":262.7521,"ARG_OF_PERICENTER":321.9306,"MEAN_ANOMALY":37.9396,"EPHEMERIS_TYPE":0,"CLASSIFICATION_TYPE":"U","NORAD_CAT_ID":56308,"ELEMENT_SET_NO":999,"REV_AT_EPOCH":15739,"BSTAR":0.0002074301,"MEAN_MOTION_DOT":3.02e-5,"MEAN_MOTION_DDOT":0},{"OBJECT_NAME":"STARLINK-5885","OBJECT_ID":"2023-058AM","EPOCH":"2026-03-09T21:32:14.476992","MEAN_MOTION":15.01261956,"ECCENTRICITY":0.00029947,"INCLINATION":97.6049,"RA_OF_ASC_NODE":70.4347,"ARG_OF_PERICENTER":117.4705,"MEAN_ANOMALY":242.6825,"EPHEMERIS_TYPE":0,"CLASSIFICATION_TYPE":"U","NORAD_CAT_ID":56352,"ELEMENT_SET_NO":999,"REV_AT_EPOCH":15816,"BSTAR":1.6721025e-5,"MEAN_MOTION_DOT":1.56e-6,"MEAN_MOTION_DDOT":0}]
