POEM-2                  
1 56308U 23057A   26068.98468983  .00003020  00000+0  20743-3 0  9999
2 56308   9.8873 262.7521 0021373 321.9306  37.9396 14.94660083157397
STARLINK-5885           
1 56352U 23058AM  26068.89738978  .00000156  00000+0  16721-4 0  9992
2 56352  97.6049  70.4347 0002995 117.4705 242.6825 15.01261956158169
